AISTECHSAT 2            
1 43768U 18099L   22302.14365497  .00002775  00000+0  25028-3 0  9993
2 43768  97.6026   3.6620 0011205 172.1504 187.9895 14.96288343212679
FLOCK 3S-1              
1 43769U 18099M   22302.16210306  .00002137  00000+0  19224-3 0  9997
2 43769  97.6057   4.2966 0013853 180.6178 179.5029 14.96615069213009
FOX-1CLIFF (AO-95)      
1 43770U 18099N   22301.42992688  .00002629  00000+0  23238-3 0  9993
2 43770  97.6058   4.2762 0013818 185.3528 174.7548 14.97105327212901
2018-099P               
1 43771U 18099P   22301.70413854  .00003558  00000+0  31085-3 0  9999
2 43771  97.6065   4.7576 0013953 184.2588 175.8517 14.97340087212948
RANGE-A                 
1 43772U 18099Q   22302.16322632  .00004736  00000+0  40574-3 0  9996
2 43772  97.6180   7.0019 0013419 169.1253 191.0262 14.97947246213042
RANGE-B                 
1 43773U 18099R   22302.13038994  .00003551  00000+0  31675-3 0  9995
2 43773  97.5986   3.6111 0013548 167.4962 192.6599 14.96529646212983
HIBER-2                 
1 43774U 18099S   22302.14546715  .00005981  00000+0  50910-3 0  9994
2 43774  97.6152   6.4898 0012314 167.5576 192.5953 14.98109079213042
2018-099T               
1 43775U 18099T   22302.12793852  .00002778  00000+0  24949-3 0  9993
2 43775  97.6064   4.9650 0014515 172.9366 187.2063 14.96429426212980
SPAWAR-CAL-R            
1 43776U 18099U   22302.15630323  .00001154  00000+0  10766-3 0  9999
2 43776  97.6045   4.6184 0014390 174.1899 185.9492 14.96040962212979
SPAWAR-CAL-OR           
1 43778U 18099W   22301.42321015  .00002358  00000+0  20896-3 0  9997
2 43778  97.5945   2.6205 0013394 179.8246 180.2983 14.97106721212499
2018-099X               
1 43779U 18099X   22302.18198271  .00002062  00000+0  18750-3 0  9996
2 43779  97.6050   4.8069 0014563 173.9222 186.2179 14.96207255212988
MOVE-II                 
1 43780U 18099Y   22301.65942894  .00006346  00000+0  52936-3 0  9990
2 43780  97.6095   5.9850 0013303 175.1585 184.9769 14.98858516213004
SNUSAT-2                
1 43782U 18099AA  22301.73135424  .00003933  00000+0  34410-3 0  9990
2 43782  97.6066   5.0645 0012750 166.0145 194.1433 14.97231223212978
KAZSTSAT                
1 43783U 18099AB  22301.71330657  .00001160  00000+0  11344-3 0  9995
2 43783  97.6149   3.1649 0007976 173.6982 186.4340 14.94175580212703
SNUGLITE                
1 43784U 18099AC  22301.81441970  .00003217  00000+0  28025-3 0  9997
2 43784  97.6034   4.7708 0014371 174.8170 185.3204 14.97515701213017
ORBWEAVER 2             
1 43785U 18099AD  22301.77616040  .00008619  00000+0  68409-3 0  9996
2 43785  97.6066   6.8038 0017273 164.4720 195.7037 15.00619817212670
ITASAT 1                
1 43786U 18099AE  22302.14887579  .00003062  00000+0  26930-3 0  9996
2 43786  97.6098   5.9615 0014615 173.4947 186.6468 14.97174690213055
