[{"OBJECT_NAME":"AISTECHSAT 2","OBJECT_ID":"2018-099L","EPOCH":"2022-10-29T03:26:51.789408","MEAN_MOTION":14.96288343,"ECCENTRICITY":0.0011205,"INCLINATION":97.6026,"RA_OF_ASC_NODE":3.662,"ARG_OF_PERICENTER":172.1504,"MEAN_ANOMALY":187.9895,"EPHEMERIS_TYPE":0,"CLASSIFICATION_TYPE":"U","NORAD_CAT_ID":43768,"ELEMENT_SET_NO":999,"REV_AT_EPOCH":21267,"BSTAR":0.00025028,"MEAN_MOTION_DOT":2.775e-5,"MEAN_MOTION_DDOT":0},{"OBJECT_NAME":"FLOCK 3S-1","OBJECT_ID":"2018-099M","EPOCH":"2022-10-29T03:53:25.704384","MEAN_MOTION":14.96615069,"ECCENTRICITY":0.0013853,"INCLINATION":97.6057,"RA_OF_ASC_NODE":4.2966,"ARG_OF_PERICENTER":180.6178,"MEAN_ANOMALY":179.5029,"EPHEMERIS_TYPE":0,"CLASSIFICATION_TYPE":"U","NORAD_CAT_ID":43769,"ELEMENT_SET_NO":999,"REV_AT_EPOCH":21300,"BSTAR":0.00019224,"MEAN_MOTION_DOT":2.137e-5,"MEAN_MOTION_DDOT":0},{"OBJECT_NAME":"FOX-1CLIFF (AO-95)","OBJECT_ID":"2018-099N","EPOCH":"2022-10-28T10:19:05.682432","MEAN_MOTION":14.97105327,"ECCENTRICITY":0.0013818,"INCLINATION":97.6058,"RA_OF_ASC_NODE":4.2762,"ARG_OF_PERICENTER":185.3528,"MEAN_ANOMALY":174.7548,"EPHEMERIS_TYPE":0,"CLASSIFICATION_TYPE":"U","NORAD_CAT_ID":43770,"ELEMENT_SET_NO":999,"REV_AT_EPOCH":21290,"BSTAR":0.00023238,"MEAN_MOTION_DOT":2.629e-5,"MEAN_MOTION_DDOT":0},{"OBJECT_NAME":"2018-099P","OBJECT_ID":"2018-099P","EPOCH":"2022-10-28T16:53:57.569856","MEAN_MOTION":14.97340087,"ECCENTRICITY":0.0013953,"INCLINATION":97.6065,"RA_OF_ASC_NODE":4.7576,"ARG_OF_PERICENTER":184.2588,"MEAN_ANOMALY":175.8517,"EPHEMERIS_TYPE":0,"CLASSIFICATION_TYPE":"U","NORAD_CAT_ID":43771,"ELEMENT_SET_NO":999,"REV_AT_EPOCH":21294,"BSTAR":0.00031085,"MEAN_MOTION_DOT":3.558e-5,"MEAN_MOTION_DDOT":0},{"OBJECT_NAME":"RANGE-A","OBJECT_ID":"2018-099Q","EPOCH":"2022-10-29T03:55:02.754048","MEAN_MOTION":14.97947246,"ECCENTRICITY":0.0013419,"INCLINATION":97.618,"RA_OF_ASC_NODE":7.0019,"ARG_OF_PERICENTER":169.1253,"MEAN_ANOMALY":191.0262,"EPHEMERIS_TYPE":0,"CLASSIFICATION_TYPE":"U","NORAD_CAT_ID":43772,"ELEMENT_SET_NO":999,"REV_AT_EPOCH":21304,"BSTAR":0.00040574,"MEAN_MOTION_DOT":4.736e-5,"MEAN_MOTION_DDOT":0},{"OBJECT_NAME":"RANGE-B","OBJECT_ID":"2018-099R","EPOCH":"2022-10-29T03:07:45.690816","MEAN_MOTION":14.96529646,"ECCENTRICITY":0.0013548,"INCLINATION":97.5986,"RA_OF_ASC_NODE":3.6111,"ARG_OF_PERICENTER":167.4962,"MEAN_ANOMALY":192.6599,"EPHEMERIS_TYPE":0,"CLASSIFICATION_TYPE":"U","NORAD_CAT_ID":43773,"ELEMENT_SET_NO":999,"REV_AT_EPOCH":21298,"BSTAR":0.00031675,"MEAN_MOTION_DOT":3.551e-5,"MEAN_MOTION_DDOT":0},{"OBJECT_NAME":"HIBER-2","OBJECT_ID":"2018-099S","EPOCH":"2022-10-29T03:29:28.361760","MEAN_MOTION":14.98109079,"ECCENTRICITY":0.0012314,"INCLINATION":97.6152,"RA_OF_ASC_NODE":6.4898,"ARG_OF_PERICENTER":167.5576,"MEAN_ANOMALY":192.5953,"EPHEMERIS_TYPE":0,"CLASSIFICATION_TYPE":"U","NORAD_CAT_ID":43774,"ELEMENT_SET_NO":999,"REV_AT_EPOCH":21304,"BSTAR":0.0005091,"MEAN_MOTION_DOT":5.981e-5,"MEAN_MOTION_DDOT":0},{"OBJECT_NAME":"2018-099T","OBJECT_ID":"2018-099T","EPOCH":"2022-10-29T03:04:13.888128","MEAN_MOTION":14.96429426,"ECCENTRICITY":0.0014515,"INCLINATION":97.6064,"RA_OF_ASC_NODE":4.965,"ARG_OF_PERICENTER":172.9366,"MEAN_ANOMALY":187.2063,"EPHEMERIS_TYPE":0,"CLASSIFICATION_TYPE":"U","NORAD_CAT_ID":43775,"ELEMENT_SET_NO":999,"REV_AT_EPOCH":21298,"BSTAR":0.00024949,"MEAN_MOTION_DOT":2.778e-5,"MEAN_MOTION_DDOT":0},{"OBJECT_NAME":"SPAWAR-CAL-R","OBJECT_ID":"2018-099U","EPOCH":"2022-10-29T03:45:04.599072","MEAN_MOTION":14.96040962,"ECCENTRICITY":0.001439,"INCLINATION":97.6045,"RA_OF_ASC_NODE":4.6184,"ARG_OF_PERICENTER":174.1899,"MEAN_ANOMALY":185.9492,"EPHEMERIS_TYPE":0,"CLASSIFICATION_TYPE":"U","NORAD_CAT_ID":43776,"ELEMENT_SET_NO":999,"REV_AT_EPOCH":21297,"BSTAR":0.00010766,"MEAN_MOTION_DOT":1.154e-5,"MEAN_MOTION_DDOT":0},{"OBJECT_NAME":"SPAWAR-CAL-OR","OBJECT_ID":"2018-099W","EPOCH":"2022-10-28T10:09:25.356960","MEAN_MOTION":14.97106721,"ECCENTRICITY":0.0013394,"INCLINATION":97.5945,"RA_OF_ASC_NODE":2.6205,"ARG_OF_PERICENTER":179.8246,"MEAN_ANOMALY":180.2983,"EPHEMERIS_TYPE":0,"CLASSIFICATION_TYPE":"U","NORAD_CAT_ID":43778,"ELEMENT_SET_NO":999,"REV_AT_EPOCH":21249,"BSTAR":0.00020896,"MEAN_MOTION_DOT":2.358e-5,"MEAN_MOTION_DDOT":0},{"OBJECT_NAME":"2018-099X","OBJECT_ID":"2018-099X","EPOCH":"2022-10-29T04:22:03.306144","MEAN_MOTION":14.96207255,"ECCENTRICITY":0.0014563,"INCLINATION":97.605,"RA_OF_ASC_NODE":4.8069,"ARG_OF_PERICENTER":173.9222,"MEAN_ANOMALY":186.2179,"EPHEMERIS_TYPE":0,"CLASSIFICATION_TYPE":"U","NORAD_CAT_ID":43779,"ELEMENT_SET_NO":999,"REV_AT_EPOCH":21298,"BSTAR":0.0001875,"MEAN_MOTION_DOT":2.062e-5,"MEAN_MOTION_DDOT":0},{"OBJECT_NAME":"MOVE-II","OBJECT_ID":"2018-099Y","EPOCH":"2022-10-28T15:49:34.660416","MEAN_MOTION":14.98858516,"ECCENTRICITY":0.0013303,"INCLINATION":97.6095,"RA_OF_ASC_NODE":5.985,"ARG_OF_PERICENTER":175.1585,"MEAN_ANOMALY":184.9769,"EPHEMERIS_TYPE":0,"CLASSIFICATION_TYPE":"U","NORAD_CAT_ID":43780,"ELEMENT_SET_NO":999,"REV_AT_EPOCH":21300,"BSTAR":0.00052936,"MEAN_MOTION_DOT":6.346e-5,"MEAN_MOTION_DDOT":0},{"OBJECT_NAME":"SNUSAT-2","OBJECT_ID":"2018-099AA","EPOCH":"2022-10-28T17:33:09.006336","MEAN_MOTION":14.97231223,"ECCENTRICITY":0.001275,"INCLINATION":97.6066,"RA_OF_ASC_NODE":5.0645,"ARG_OF_PERICENTER":166.0145,"MEAN_ANOMALY":194.1433,"EPHEMERIS_TYPE":0,"CLASSIFICATION_TYPE":"U","NORAD_CAT_ID":43782,"ELEMENT_SET_NO":999,"REV_AT_EPOCH":21297,"BSTAR":0.0003441,"MEAN_MOTION_DOT":3.933e-5,"MEAN_MOTION_DDOT":0},{"OBJECT_NAME":"KAZSTSAT","OBJECT_ID":"2018-099AB","EPOCH":"2022-10-28T17:07:09.687648","MEAN_MOTION":14.9417558,"ECCENTRICITY":0.0007976,"INCLINATION":97.6149,"RA_OF_ASC_NODE":3.1649,"ARG_OF_PERICENTER":173.6982,"MEAN_ANOMALY":186.434,"EPHEMERIS_TYPE":0,"CLASSIFICATION_TYPE":"U","NORAD_CAT_ID":43783,"ELEMENT_SET_NO":999,"REV_AT_EPOCH":21270,"BSTAR":0.00011344,"MEAN_MOTION_DOT":1.16e-5,"MEAN_MOTION_DDOT":0},{"OBJECT_NAME":"SNUGLITE","OBJECT_ID":"2018-099AC","EPOCH":"2022-10-28T19:32:45.862080","MEAN_MOTION":14.97515701,"ECCENTRICITY":0.0014371,"INCLINATION":97.6034,"RA_OF_ASC_NODE":4.7708,"ARG_OF_PERICENTER":174.817,"MEAN_ANOMALY":185.3204,"EPHEMERIS_TYPE":0,"CLASSIFICATION_TYPE":"U","NORAD_CAT_ID":43784,"ELEMENT_SET_NO":999,"REV_AT_EPOCH":21301,"BSTAR":0.00028025,"MEAN_MOTION_DOT":3.217e-5,"MEAN_MOTION_DDOT":0},{"OBJECT_NAME":"ORBWEAVER 2","OBJECT_ID":"2018-099AD","EPOCH":"2022-10-28T18:37:40.258560","MEAN_MOTION":15.00619817,"ECCENTRICITY":0.0017273,"INCLINATION":97.6066,"RA_OF_ASC_NODE":6.8038,"ARG_OF_PERICENTER":164.472,"MEAN_ANOMALY":195.7037,"EPHEMERIS_TYPE":0,"CLASSIFICATION_TYPE":"U","NORAD_CAT_ID":43785,"ELEMENT_SET_NO":999,"REV_AT_EPOCH":21267,"BSTAR":0.00068409,"MEAN_MOTION_DOT":8.619e-5,"MEAN_MOTION_DDOT":0},{"OBJECT_NAME":"ITASAT 1","OBJECT_ID":"2018-099AE","EPOCH":"2022-10-29T03:34:22.868256","MEAN_MOTION":14.9717469,"ECCENTRICITY":0.0014615,"INCLINATION":97.6098,"RA_OF_ASC_NODE":5.9615,"ARG_OF_PERICENTER":173.4947,"MEAN_ANOMALY":186.6468,"EPHEMERIS_TYPE":0,"CLASSIFICATION_TYPE":"U","NORAD_CAT_ID":43786,"ELEMENT_SET_NO":999,"REV_AT_EPOCH":21305,"BSTAR":0.0002693,"MEAN_MOTION_DOT":3.062e-5,"MEAN_MOTION_DDOT":0}]
